     2              NAVIGATION DATA                         RINEX VERSION / TYPE
CCRINEXN V1.6.0 UX  CDDIS               30-JUN-22 23:31     PGM / RUN BY / DATE 
IGS BROADCAST EPHEMERIS FILE                                COMMENT             
    0.8382D-08  0.2235D-07 -0.5960D-07 -0.1192D-06          ION ALPHA           
    0.9421D+05  0.1311D+06 -0.6554D+05 -0.5898D+06          ION BETA            
    0.558793544769D-08 0.195399252334D-13   503808     2216 DELTA-UTC: A0,A1,T,W
    18                                                      LEAP SECONDS        
                                                            END OF HEADER       
31 22  6 29  0  0  0.0-0.183667521924D-03-0.147792889038D-11 0.000000000000D+00
    0.470000000000D+02-0.110937500000D+02 0.490699011012D-08-0.169077901160D+01
   -0.590458512306D-06 0.104363684077D-01 0.584498047829D-05 0.515375459862D+04
    0.259200000000D+06 0.745058059692D-07-0.113799878197D+01-0.115483999252D-06
    0.954501615738D+00 0.263406250000D+03 0.398348629939D+00-0.795997442203D-08
   -0.353586156854D-09 0.100000000000D+01 0.221600000000D+04 0.000000000000D+00
    0.200000000000D+01 0.000000000000D+00-0.135041773319D-07 0.470000000000D+02
    0.252018000000D+06 0.400000000000D+01 0.000000000000D+00 0.000000000000D+00
32 22  6 29  0  0  0.0-0.162874348462D-03-0.966338120634D-11 0.000000000000D+00
    0.890000000000D+02 0.593750000000D+01 0.475234081121D-08 0.236501193633D+01
    0.204890966415D-06 0.602187158074D-02 0.763870775700D-05 0.515360888100D+04
    0.259200000000D+06-0.670552253723D-07-0.221697672797D+01-0.912696123123D-07
    0.958184533946D+00 0.230812500000D+03-0.227950858634D+01-0.781925427476D-08
    0.478591363823D-09 0.100000000000D+01 0.221600000000D+04 0.000000000000D+00
    0.200000000000D+01 0.000000000000D+00 0.465661287308D-09 0.890000000000D+02
    0.255858000000D+06 0.400000000000D+01 0.000000000000D+00 0.000000000000D+00
18 22  6 29  0 29 36.0 0.128711573780D-03-0.111413100967D-10 0.000000000000D+00
    0.180000000000D+02-0.789375000000D+02 0.436161025000D-08 0.790194571461D-01
   -0.402145087719D-05 0.246850668918D-02 0.153295695782D-05 0.515372993660D+04
    0.260976000000D+06 0.130385160446D-07 0.199969380517D+01-0.204890966415D-07
    0.971677511617D+00 0.354093750000D+03 0.300899257538D+01-0.823105714228D-08
   -0.389301930274D-10 0.100000000000D+01 0.221600000000D+04 0.000000000000D+00
    0.200000000000D+01 0.000000000000D+00-0.838190317154D-08 0.274000000000D+03
    0.253873000000D+06 0.400000000000D+01 0.000000000000D+00 0.000000000000D+00
14 22  6 29  1 44 32.0-0.111986882985D-03-0.227373675443D-12 0.000000000000D+00
    0.189000000000D+03 0.665312500000D+02 0.426803492364D-08-0.963460931284D+00
    0.340491533279D-05 0.206231407356D-02 0.108107924461D-04 0.515366359711D+04
    0.265472000000D+06 0.745058059692D-08-0.768663708900D-01-0.143423676491D-06
    0.952612442829D+00 0.171031250000D+03-0.312058570149D+01-0.769067749044D-08
   -0.531450708484D-09 0.100000000000D+01 0.221600000000D+04 0.000000000000D+00
    0.200000000000D+01 0.000000000000D+00-0.791624188423D-08 0.957000000000D+03
    0.258318000000D+06 0.400000000000D+01 0.000000000000D+00 0.000000000000D+00
13 22  6 29  1 59 44.0 0.338611658663D-03 0.704858393874D-11 0.000000000000D+00
    0.400000000000D+01 0.120312500000D+02 0.460769192886D-08 0.228836469887D+01
    0.590458512306D-06 0.604882685002D-02 0.711716711521D-05 0.515367137528D+04
    0.266384000000D+06-0.633299350738D-07-0.207379802873D+01-0.163912773132D-06
    0.968542037835D+00 0.246562500000D+03 0.913954466855D+00-0.773639368042D-08
    0.531450708484D-09 0.100000000000D+01 0.221600000000D+04 0.000000000000D+00
    0.200000000000D+01 0.000000000000D+00-0.116415321827D-07 0.400000000000D+01
    0.260436000000D+06 0.400000000000D+01 0.000000000000D+00 0.000000000000D+00
20 22  6 29  1 59 44.0 0.507517252117D-03-0.318323145621D-11 0.000000000000D+00
    0.640000000000D+02-0.120843750000D+03 0.468340936851D-08 0.158838111120D+01
   -0.652670860290D-05 0.475256436039D-02 0.772252678871D-05 0.515361009026D+04
    0.266384000000D+06-0.372529029846D-08 0.286884482151D+01 0.558793544769D-07
    0.944031114594D+00 0.221937500000D+03-0.311917312827D+01-0.802426281418D-08
    0.400016662300D-10 0.100000000000D+01 0.221600000000D+04 0.000000000000D+00
    0.200000000000D+01 0.000000000000D+00-0.838190317154D-08 0.640000000000D+02
    0.259218000000D+06 0.400000000000D+01 0.000000000000D+00 0.000000000000D+00
32 22  6 29  1 59 44.0-0.162944663316D-03-0.966338120634D-11 0.000000000000D+00
    0.100000000000D+01 0.103437500000D+02 0.480270005174D-08-0.287029570123D+01
    0.542029738426D-06 0.602127588354D-02 0.755488872528D-05 0.515360999298D+04
    0.266384000000D+06 0.447034835815D-07-0.221703339703D+01-0.158324837685D-06
    0.958187911824D+00 0.231031250000D+03-0.227949772856D+01-0.788068540504D-08
    0.540022494104D-09 0.100000000000D+01 0.221600000000D+04 0.000000000000D+00
    0.200000000000D+01 0.000000000000D+00 0.465661287308D-09 0.100000000000D+01
    0.259276000000D+06 0.400000000000D+01 0.000000000000D+00 0.000000000000D+00
 1 22  6 29  2  0  0.0 0.331729650497D-03-0.773070496507D-11 0.000000000000D+00
    0.770000000000D+02-0.688750000000D+02 0.400159525393D-08 0.505006171808D+00
   -0.370480120182D-05 0.120248271851D-01 0.137090682983D-05 0.515366203690D+04
    0.266400000000D+06-0.184401869774D-06 0.199380303490D+01 0.137835741043D-06
    0.987843800917D+00 0.369343750000D+03 0.926157553083D+00-0.820748473183D-08
   -0.169649923743D-09 0.100000000000D+01 0.221600000000D+04 0.000000000000D+00
    0.200000000000D+01 0.000000000000D+00 0.512227416039D-08 0.770000000000D+02
    0.263149000000D+06 0.400000000000D+01 0.000000000000D+00 0.000000000000D+00
 2 22  6 29  2  0  0.0-0.652168877423D-03 0.454747350886D-12 0.000000000000D+00
    0.690000000000D+02-0.426250000000D+02 0.462304971143D-08 0.671174305355D+00
   -0.250153243542D-05 0.204181856243D-01 0.875443220139D-06 0.515368602562D+04
    0.266400000000D+06-0.195577740669D-06 0.190170224622D+01-0.199303030968D-06
    0.965887346228D+00 0.365000000000D+03-0.141112336373D+01-0.869107630393D-08
   -0.864321716755D-10 0.100000000000D+01 0.221600000000D+04 0.000000000000D+00
    0.200000000000D+01 0.000000000000D+00-0.176951289177D-07 0.690000000000D+02
    0.259218000000D+06 0.400000000000D+01 0.000000000000D+00 0.000000000000D+00
 3 22  6 29  2  0  0.0-0.292668584734D-03-0.110276232590D-10 0.000000000000D+00
    0.940000000000D+02-0.115875000000D+03 0.402588197986D-08-0.598043943434D+00
   -0.582821667194D-05 0.433928752318D-02 0.985898077488D-05 0.515360529327D+04
    0.266400000000D+06 0.186264514923D-07 0.302742467902D+01 0.745058059692D-07
    0.974731250703D+00 0.201218750000D+03 0.985666996370D+00-0.768067707389D-08
    0.230723896291D-09 0.100000000000D+01 0.221600000000D+04 0.000000000000D+00
    0.400000000000D+01 0.000000000000D+00 0.186264514923D-08 0.940000000000D+02
    0.259218000000D+06 0.400000000000D+01 0.000000000000D+00 0.000000000000D+00
 4 22  6 29  2  0  0.0-0.151904765517D-03 0.432009983342D-11 0.000000000000D+00
    0.150000000000D+03 0.593750000000D+01 0.482127225391D-08 0.229961523232D+01
    0.400468707085D-06 0.186047679745D-02 0.734627246857D-05 0.515359355354D+04
    0.266400000000D+06-0.614672899246D-07-0.217477233721D+01 0.763684511185D-07
    0.961288916330D+00 0.239687500000D+03-0.297810819206D+01-0.790925802377D-08
    0.594667627437D-09 0.100000000000D+01 0.221600000000D+04 0.000000000000D+00
    0.200000000000D+01 0.000000000000D+00-0.465661287308D-08 0.406000000000D+03
    0.259218000000D+06 0.400000000000D+01 0.000000000000D+00 0.000000000000D+00
 5 22  6 29  2  0  0.0-0.872393138707D-04-0.136424205266D-11 0.000000000000D+00
    0.200000000000D+02-0.115375000000D+03 0.423517641210D-08 0.313558169729D+01
   -0.615976750851D-05 0.608372839633D-02 0.911951065063D-05 0.515375385666D+04
    0.266400000000D+06 0.335276126862D-07 0.298527003186D+01-0.102445483208D-06
    0.961735929968D+00 0.207187500000D+03 0.104826522295D+01-0.766674792225D-08
    0.176078762959D-09 0.100000000000D+01 0.221600000000D+04 0.000000000000D+00
    0.200000000000D+01 0.000000000000D+00-0.111758708954D-07 0.200000000000D+02
    0.259218000000D+06 0.400000000000D+01 0.000000000000D+00 0.000000000000D+00
 6 22  6 29  2  0  0.0 0.363077037036D-03 0.159161572810D-10 0.000000000000D+00
    0.240000000000D+02-0.657812500000D+02 0.394587864740D-08 0.734879023187D+00
   -0.328943133354D-05 0.247547694016D-02 0.888481736183D-06 0.515375118256D+04
    0.266400000000D+06 0.260770320892D-07 0.198552080320D+01-0.298023223877D-07
    0.987169508327D+00 0.373031250000D+03-0.858225320918D+00-0.809676583422D-08
   -0.421446126351D-10 0.100000000000D+01 0.221600000000D+04 0.000000000000D+00
    0.200000000000D+01 0.000000000000D+00 0.372529029846D-08 0.240000000000D+02
    0.259218000000D+06 0.400000000000D+01 0.000000000000D+00 0.000000000000D+00
 7 22  6 29  2  0  0.0 0.320852734149D-03-0.909494701773D-12 0.000000000000D+00
    0.250000000000D+02-0.784375000000D+01 0.526307637111D-08-0.147556512310D+00
   -0.346451997757D-06 0.162883279845D-01 0.545755028725D-05 0.515364403343D+04
    0.266400000000D+06-0.316649675369D-07-0.115668974310D+01 0.169500708580D-06
    0.950298887626D+00 0.266968750000D+03-0.225651433757D+01-0.847463871701D-08
   -0.459662003910D-09 0.100000000000D+01 0.221600000000D+04 0.000000000000D+00
    0.200000000000D+01 0.000000000000D+00-0.111758708954D-07 0.250000000000D+02
    0.259218000000D+06 0.400000000000D+01 0.000000000000D+00 0.000000000000D+00
